OBJECT_NAME,OBJECT_ID,EPOCH,MEAN_MOTION,ECCENTRICITY,INCLINATION,RA_OF_ASC_NODE,ARG_OF_PERICENTER,MEAN_ANOMALY,EPHEMERIS_TYPE,CLASSIFICATION_TYPE,NORAD_CAT_ID,ELEMENT_SET_NO,REV_AT_EPOCH,BSTAR,MEAN_MOTION_DOT,MEAN_MOTION_DDOT
TRITON-1,2013-066M,2026-06-03T23:48:08.602272,14.81657826,.00883933,97.8261,65.0993,277.7172,81.4011,0,U,39427,999,67213,.38448291E-3,.3179E-4,0
GOMX-1,2013-066Q,2026-06-03T21:46:45.551424,14.69406845,.01299565,97.6488,356.2085,119.7259,241.6953,0,U,39430,999,66796,.36121185E-3,.2383E-4,0
CUBEBUG-2 (LO-74),2013-066AA,2026-06-03T07:55:56.668800,14.93641817,.00594532,97.8904,103.2522,73.9566,286.8190,0,U,39440,999,67492,.47122985E-3,.5093E-4,0
NEE-02 KRYSAOR,2013-066AB,2026-06-02T19:19:10.619328,14.86554787,.0067604,97.8894,93.1239,116.2445,244.5740,0,U,39441,999,67406,.2311691E-3,.2076E-4,0
FUNCUBE-1 (AO-73),2013-066AE,2026-06-03T17:33:37.044000,15.09317269,.00346977,97.8276,125.8984,248.4796,111.2732,0,U,39444,999,67763,.51138585E-3,.8204E-4,0
UWE-3,2013-066AG,2026-06-03T10:42:20.999232,14.96911221,.00494786,97.8706,110.4297,7.6789,352.5179,0,U,39446,999,67552,.40386206E-3,.4691E-4,0
SMDC ONE 2.4,2013-072H,2026-06-03T05:44:40.843968,15.17905295,.0143185,120.4924,298.2438,4.1650,356.0586,0,U,39469,999,11571,.40812E-3,.10519E-3,0
COSMOS 2488 (RODNIK-S 7),2013-076A,2026-06-03T22:00:28.037088,12.42905271,.00206677,82.4828,176.9629,122.7549,237.5526,0,U,39483,999,56424,-.38061952E-3,-.43E-6,0
COSMOS 2489 (RODNIK-S 8),2013-076B,2026-06-03T21:24:21.130272,12.42879625,.0022487,82.4865,178.3529,122.8993,237.4255,0,U,39484,999,56429,.33784016E-3,.57E-6,0
COSMOS 2490 (RODNIK-S 9),2013-076C,2026-06-03T22:39:45.506016,12.42877984,.00224093,82.4811,176.3936,137.7799,222.5011,0,U,39485,999,56423,.40902202E-3,.67E-6,0
KAZEOSAT 1,2014-024A,2026-06-03T23:27:24.094080,14.42073959,.00015131,98.3207,227.7524,78.9234,281.2126,0,U,39731,999,63665,.36327513E-4,.77E-6,0
COSMOS 2496 (RODNIK-S 10),2014-028A,2026-06-03T23:34:32.844576,12.42877619,.0021157,82.4439,117.0017,106.0739,254.2673,0,U,39761,999,54587,-.57829638E-3,-.7E-6,0
COSMOS 2497 (RODNIK-S 11),2014-028B,2026-06-03T21:03:16.646400,12.42893544,.00217634,82.4486,118.7521,101.6273,258.7251,0,U,39762,999,54586,-.10377838E-3,-.4E-7,0
COSMOS 2498 (RODNIK-S 12),2014-028C,2026-06-03T22:28:15.463776,12.42979543,.00224809,82.4447,117.2079,101.1636,259.1973,0,U,39763,999,54590,-.26511441E-3,-.27E-6,0
HODOYOSHI-4,2014-033B,2026-06-03T22:07:53.273568,14.88095925,.00235977,97.5447,340.3854,353.3456,6.7445,0,U,40011,999,64683,.17837596E-3,.1596E-4,0
UNISAT-6,2014-033C,2026-06-03T16:27:54.809856,14.88166007,.0046407,97.7869,307.6374,112.5348,248.0791,0,U,40012,999,64415,.38451616E-3,.3559E-4,0
DEIMOS-2,2014-033D,2026-06-03T22:03:48.218112,14.93685632,.00019054,97.5838,29.8735,58.5148,301.6259,0,U,40013,999,63574,.17813754E-3,.1829E-4,0
BUGSAT-1 (TITA),2014-033E,2026-06-03T21:31:48.951840,15.15434247,.0027031,98.0425,246.6705,224.2267,135.6804,0,U,40014,999,65382,.31330978E-3,.59E-4,0
SAUDISAT 4,2014-033G,2026-06-03T07:44:07.390464,14.79523690,.00461007,97.7567,300.9383,117.7268,242.8631,0,U,40016,999,64402,.12685752E-3,.914E-5,0
APRIZESAT 9,2014-033J,2026-06-03T07:02:21.027552,14.74195339,.00648781,97.9044,287.8329,244.4445,115.0047,0,U,40018,999,64151,.11359589E-3,.722E-5,0
BRITE-CA1 (TORONTO),2014-033L,2026-06-03T07:30:38.858400,14.72656654,.00777195,97.9723,283.4981,322.1342,37.4414,0,U,40020,999,64017,.12817401E-3,.802E-5,0
