TRITON-1                
1 39427U 13066M   26154.99176623  .00003179  00000+0  38448-3 0  9991
2 39427  97.8261  65.0993 0088393 277.7172  81.4011 14.81657826672138
GOMX-1                  
1 39430U 13066Q   26154.90747166  .00002383  00000+0  36121-3 0  9994
2 39430  97.6488 356.2085 0129956 119.7259 241.6953 14.69406845667969
CUBEBUG-2 (LO-74)       
1 39440U 13066AA  26154.33051700  .00005093  00000+0  47123-3 0  9999
2 39440  97.8904 103.2522 0059453  73.9566 286.8190 14.93641817674922
NEE-02 KRYSAOR          
1 39441U 13066AB  26153.80498402  .00002076  00000+0  23117-3 0  9990
2 39441  97.8894  93.1239 0067604 116.2445 244.5740 14.86554787674065
FUNCUBE-1 (AO-73)       
1 39444U 13066AE  26154.73167875  .00008204  00000+0  51139-3 0  9997
2 39444  97.8276 125.8984 0034697 248.4796 111.2732 15.09317269677630
UWE-3                   
1 39446U 13066AG  26154.44607638  .00004691  00000+0  40386-3 0  9991
2 39446  97.8706 110.4297 0049478   7.6789 352.5179 14.96911221675521
SMDC ONE 2.4            
1 39469U 13072H   26154.23936162  .00010519  00000+0  40812-3 0  9997
2 39469 120.4924 298.2438 0143185   4.1650 356.0586 15.17905295115711
COSMOS 2488 (RODNIK-S 7)
1 39483U 13076A   26154.91699117 -.00000043  00000+0 -38062-3 0  9995
2 39483  82.4828 176.9629 0020667 122.7549 237.5526 12.42905271564246
COSMOS 2489 (RODNIK-S 8)
1 39484U 13076B   26154.89191123  .00000057  00000+0  33784-3 0  9996
2 39484  82.4865 178.3529 0022487 122.8993 237.4255 12.42879625564295
COSMOS 2490 (RODNIK-S 9)
1 39485U 13076C   26154.94427669  .00000067  00000+0  40902-3 0  9991
2 39485  82.4811 176.3936 0022409 137.7799 222.5011 12.42877984564235
KAZEOSAT 1              
1 39731U 14024A   26154.97736220  .00000077  00000+0  36328-4 0  9997
2 39731  98.3207 227.7524 0001513  78.9234 281.2126 14.42073959636658
COSMOS 2496 (RODNIK-S *)
1 39761U 14028A   26154.98232459 -.00000070  00000+0 -57830-3 0  9995
2 39761  82.4439 117.0017 0021157 106.0739 254.2673 12.42877619545872
COSMOS 2497 (RODNIK-S *)
1 39762U 14028B   26154.87727600 -.00000004  00000+0 -10378-3 0  9994
2 39762  82.4486 118.7521 0021763 101.6273 258.7251 12.42893544545865
COSMOS 2498 (RODNIK-S *)
1 39763U 14028C   26154.93629009 -.00000027  00000+0 -26511-3 0  9997
2 39763  82.4447 117.2079 0022480 101.1636 259.1973 12.42979543545905
HODOYOSHI-4             
1 40011U 14033B   26154.92214437  .00001596  00000+0  17838-3 0  9997
2 40011  97.5447 340.3854 0023597 353.3456   6.7445 14.88095925646830
UNISAT-6                
1 40012U 14033C   26154.68605104  .00003559  00000+0  38452-3 0  9992
2 40012  97.7869 307.6374 0046407 112.5348 248.0791 14.88166007644152
DEIMOS-2                
1 40013U 14033D   26154.91930808  .00001829  00000+0  17814-3 0  9998
2 40013  97.5838  29.8735 0001905  58.5148 301.6259 14.93685632635748
BUGSAT-1 (TITA)         
1 40014U 14033E   26154.89709435  .00005900  00000+0  31331-3 0  9990
2 40014  98.0425 246.6705 0027031 224.2267 135.6804 15.15434247653824
SAUDISAT 4              
1 40016U 14033G   26154.32230776  .00000914  00000+0  12686-3 0  9999
2 40016  97.7567 300.9383 0046100 117.7268 242.8631 14.79523690644021
APRIZESAT 9             
1 40018U 14033J   26154.29329893  .00000722  00000+0  11360-3 0  9991
2 40018  97.9044 287.8329 0064878 244.4445 115.0047 14.74195339641518
BRITE-CA1 (TORONTO)     
1 40020U 14033L   26154.31294975  .00000802  00000+0  12817-3 0  9996
2 40020  97.9723 283.4981 0077719 322.1342  37.4414 14.72656654640175
